OBJECT_NAME,OBJECT_ID,EPOCH,MEAN_MOTION,ECCENTRICITY,INCLINATION,RA_OF_ASC_NODE,ARG_OF_PERICENTER,MEAN_ANOMALY,EPHEMERIS_TYPE,CLASSIFICATION_TYPE,NORAD_CAT_ID,ELEMENT_SET_NO,REV_AT_EPOCH,BSTAR,MEAN_MOTION_DOT,MEAN_MOTION_DDOT
SUOMI NPP,2011-061A,2026-07-09T06:16:48.884160,14.19521880,.00005697,98.7956,130.9874,257.0030,103.1082,0,U,37849,999,76157,.3719035E-4,.34E-6,0
YAOGAN-12,2011-066B,2026-07-09T13:12:00.481248,15.26859276,.0010786,97.1135,228.0683,140.2881,219.9150,0,U,37875,999,81545,.15524E-3,.4033E-4,0
BEIDOU-2 M4,2012-018B,2026-07-05T21:56:58.538688,1.86229838,.00118237,55.6406,303.4567,273.7127,86.1743,0,U,38251,999,9629,0,-.61E-6,0
ARIRANG-3 (KOMPSAT-3),2012-025B,2026-07-09T06:32:24.109728,14.62225881,.00065352,98.1182,147.3528,54.2122,305.9686,0,U,38338,999,75457,.69358854E-4,.303E-5,0
METOP-B,2012-049A,2026-07-09T07:01:00.235776,14.21445293,.00010735,98.6492,241.3493,292.2895,67.8168,0,U,38771,999,71640,.45074536E-4,.55E-6,0
SJ-9A,2012-056A,2026-07-09T04:34:51.241440,14.85521279,.00254295,97.6723,161.3486,181.3891,178.7258,0,U,38860,999,70285,.90860475E-4,.736E-5,0
COSMOS 2484 (RODNIK-S 6),2013-001C,2026-07-09T06:45:45.856800,12.42939615,.00259115,82.5002,208.1559,348.7006,11.3489,0,U,39059,999,61130,-.70283116E-3,-.88E-6,0
SARAL,2013-009A,2026-07-09T07:36:03.183264,14.32894777,.00013449,98.5554,16.6040,182.6701,177.4476,0,U,39086,999,69877,.40159892E-4,.66E-6,0
STRAND-1,2013-009E,2026-07-08T22:00:42.585120,14.37176360,.00090498,98.3931,9.6176,158.4879,201.6690,0,U,39090,999,70018,.79795133E-4,.195E-5,0
BRITE-AUSTRIA,2013-009F,2026-07-08T22:32:48.990624,14.36550763,.00103859,98.4005,8.8378,168.5831,191.5593,0,U,39091,999,70017,.53492733E-4,.114E-5,0
GAOFEN-1,2013-018A,2026-07-09T06:58:43.892256,14.76514383,.00165747,97.9083,261.9090,190.2733,169.8141,0,U,39150,999,71150,.54204419E-4,.328E-5,0
NEE-01 PEGASO,2013-018B,2026-07-08T15:14:13.880832,14.93773274,.0013931,98.1251,334.4982,93.6559,266.6253,0,U,39151,999,71390,.1576398E-3,.1612E-4,0
PROBA-V,2013-021A,2026-07-08T21:46:38.142624,14.23602599,.00053939,98.3600,167.4432,74.2833,285.8941,0,U,39159,999,68420,.467092E-4,.65E-6,0
ARIRANG-5 (KOMPSAT-5),2013-042A,2026-07-09T07:31:09.895008,15.04517206,.00054821,97.6223,16.7028,72.4277,287.7547,0,U,39227,999,70718,.5651999E-4,.731E-5,0
GONETS-M 5,2013-048A,2026-07-09T07:58:08.389056,12.42893026,.00171044,82.4848,329.5759,161.9854,198.1835,0,U,39249,999,58163,.11963337E-2,.176E-5,0
GONETS-M 7,2013-048C,2026-07-09T07:04:13.146240,12.42915911,.00178898,82.4915,332.5329,163.3651,196.8019,0,U,39251,999,58158,.13425883E-2,.196E-5,0
FENGYUN 3C,2013-052A,2026-07-09T05:38:45.714048,14.15759960,.00139329,98.4993,163.0992,324.1445,35.8794,0,U,39260,999,66168,.49006956E-4,.55E-6,0
CASSIOPE,2013-055A,2026-07-09T06:08:43.959840,15.27134878,.0284311,80.9140,39.8788,348.0376,11.4191,0,U,39265,999,67103,.35511333E-3,.33027E-3,-.457484E-6
APRIZESAT 7,2013-066A,2026-07-09T07:00:12.511872,14.91611282,.00368234,97.7719,143.1956,136.2603,224.1544,0,U,39416,999,68452,.10031167E-3,.962E-5,0
ZACUBE-1 (TSHEPISOSAT),2013-066B,2026-07-09T03:16:03.961344,15.01311101,.00436571,97.8016,152.5825,174.6140,185.5562,0,U,39417,999,68402,.12533182E-3,.1581E-4,0
APRIZESAT 8,2013-066K,2026-07-09T06:29:03.747264,14.87690621,.0045007,97.8227,137.4314,211.6319,148.2191,0,U,39425,999,68295,.68770348E-4,.58E-5,0
